[{"OBJECT_NAME":"STARLINK-3961","OBJECT_ID":"2022-052AR","EPOCH":"2026-03-09T19:24:16.738848","MEAN_MOTION":15.08838259,"ECCENTRICITY":0.00012864,"INCLINATION":53.2165,"RA_OF_ASC_NODE":258.5882,"ARG_OF_PERICENTER":100.0936,"MEAN_ANOMALY":260.0202,"EPHEMERIS_TYPE":0,"CLASSIFICATION_TYPE":"U","NORAD_CAT_ID":52637,"ELEMENT_SET_NO":999,"REV_AT_EPOCH":21195,"BSTAR":-1.9491046e-5,"MEAN_MOTION_DOT":-5.98e-6,"MEAN_MOTION_DDOT":0},{"OBJECT_NAME":"COSMOS 252","OBJECT_ID":"1968-097A","EPOCH":"2026-03-09T07:24:26.509824","MEAN_MOTION":12.88259748,"ECCENTRICITY":0.10045094,"INCLINATION":62.3208,"RA_OF_ASC_NODE":37.8588,"ARG_OF_PERICENTER":34.9769,"MEAN_ANOMALY":331.3181,"EPHEMERIS_TYPE":0,"CLASSIFICATION_TYPE":"U","NORAD_CAT_ID":3530,"ELEMENT_SET_NO":999,"REV_AT_EPOCH":69308,"BSTAR":0.00016764967,"MEAN_MOTION_DOT":3.47e-6,"MEAN_MOTION_DDOT":0}]
